[{"OBJECT_NAME":"UHETSAT","OBJECT_ID":"2023-185E","EPOCH":"2026-03-09T22:39:26.455680","MEAN_MOTION":15.29797662,"ECCENTRICITY":0.00118435,"INCLINATION":97.3584,"RA_OF_ASC_NODE":137.3576,"ARG_OF_PERICENTER":307.7346,"MEAN_ANOMALY":52.2821,"EPHEMERIS_TYPE":0,"CLASSIFICATION_TYPE":"U","NORAD_CAT_ID":58466,"ELEMENT_SET_NO":999,"REV_AT_EPOCH":12611,"BSTAR":0.00030513019,"MEAN_MOTION_DOT":8.749e-5,"MEAN_MOTION_DDOT":0},{"OBJECT_NAME":"STARLINK-36154","OBJECT_ID":"2025-286Q","EPOCH":"2026-03-09T01:55:57.837792","MEAN_MOTION":15.30172711,"ECCENTRICITY":0.00012955,"INCLINATION":53.1618,"RA_OF_ASC_NODE":1.2703,"ARG_OF_PERICENTER":54.3015,"MEAN_ANOMALY":305.8106,"EPHEMERIS_TYPE":0,"CLASSIFICATION_TYPE":"U","NORAD_CAT_ID":66939,"ELEMENT_SET_NO":999,"REV_AT_EPOCH":1532,"BSTAR":0.0016559149,"MEAN_MOTION_DOT":0.00048966,"MEAN_MOTION_DDOT":0}]
